NORAD_CAT_ID,OBJECT_NAME,OBJECT_TYPE,EPOCH,MEAN_MOTION,ECCENTRICITY,INCLINATION,RA_OF_ASC_NODE,ARG_OF_PERICENTER,MEAN_ANOMALY,BSTAR,MEAN_MOTION_DOT,MEAN_MOTION_DDOT,TLE_LINE0,TLE_LINE1,TLE_LINE2,SEMIMAJOR_AXIS,PERIOD,APOGEE,PERIGEE,DECAYED
56771.0,STARLINK-6339,PAYLOAD,2024-07-08 21:58:03,14.98329093,0.0002924,69.9989,39.5546,269.3398,90.7426,9.6734e-06,2.2e-07,0.0,0 STARLINK-6339,1 56771U 23078E   24190.91531521  .00000022  00000-0  96734-5 0  9997,2 56771  69.9989  39.5546 0002924 269.3398  90.7426 14.98329093 62472,6950.196,96.107,574.093,570.028,0.0
56771.0,STARLINK-6339,PAYLOAD,2024-07-09 13:59:23,14.98330136,0.0002917,69.9989,37.8709,269.5255,90.557,2.0105e-05,1.47e-06,0.0,0 STARLINK-6339,1 56771U 23078E   24191.58291417  .00000147  00000-0  20105-4 0  9994,2 56771  69.9989  37.8709 0002917 269.5255  90.5570 14.98330136 62579,6950.192,96.107,574.085,570.03,0.0
56771.0,STARLINK-6339,PAYLOAD,2024-07-09 20:23:56,14.98329439,0.0002971,69.9989,37.1975,269.1567,90.9252,-3.2505e-06,-1.32e-06,0.0,0 STARLINK-6339,1 56771U 23078E   24191.84995516 -.00000132  00000-0 -32505-5 0  9998,2 56771  69.9989  37.1975 0002971 269.1567  90.9252 14.98329439 62877,6950.195,96.107,574.125,569.995,0.0
56771.0,STARLINK-6339,PAYLOAD,2024-07-09 22:00:04,14.98330304,0.0002962,69.9989,37.0292,269.2359,90.8461,6.8807e-06,-1.1e-07,0.0,0 STARLINK-6339,1 56771U 23078E   24191.91671431 -.00000011  00000-0  68807-5 0  9992,2 56771  69.9989  37.0292 0002962 269.2359  90.8461 14.98330304 62625,6950.192,96.107,574.116,569.998,0.0
56771.0,STARLINK-6339,PAYLOAD,2024-07-10 12:25:16,14.98328931,0.0002961,69.9989,35.514,269.2246,90.8574,1.431e-05,7.8e-07,0.0,0 STARLINK-6339,1 56771U 23078E   24192.51755481  .00000078  00000-0  14310-4 0  9998,2 56771  69.9989  35.5140 0002961 269.2246  90.8574 14.98328931 62712,6950.196,96.107,574.119,570.003,0.0
56771.0,STARLINK-6339,PAYLOAD,2024-07-10 20:25:57,14.98329908,0.000298,69.9989,34.6724,269.2666,90.8152,9.7595e-06,2.3e-07,0.0,0 STARLINK-6339,1 56771U 23078E   24192.85135432  .00000023  00000-0  97595-5 0  9990,2 56771  69.9989  34.6724 0002980 269.2666  90.8152 14.98329908 63029,6950.193,96.107,574.129,569.987,0.0
56771.0,STARLINK-6339,PAYLOAD,2024-07-10 22:02:05,14.98330085,0.0002977,69.9989,34.5041,269.3621,90.7197,1.1688e-05,4.6e-07,0.0,0 STARLINK-6339,1 56771U 23078E   24192.91811413  .00000046  00000-0  11688-4 0  9990,2 56771  69.9989  34.5041 0002977 269.3621  90.7197 14.98330085 62775,6950.193,96.107,574.127,569.989,0.0
56771.0,STARLINK-6339,PAYLOAD,2024-07-11 14:03:25,14.98326274,0.0003064,69.9996,32.8193,264.4737,95.6072,-3.4962e-06,-1.35e-06,0.0,0 STARLINK-6339,1 56771U 23078E   24193.58571664 -.00000135  00000-0 -34962-5 0  9997,2 56771  69.9996  32.8193 0003064 264.4737  95.6072 14.98326274 62876,6950.204,96.107,574.199,569.94,0.0
56771.0,STARLINK-6339,PAYLOAD,2024-07-12 06:04:47,14.98322648,0.0003149,69.999,31.1369,269.8474,90.2324,-3.8128e-05,-5.48e-06,0.0,0 STARLINK-6339,1 56771U 23078E   24194.25332832 -.00000548  00000-0 -38128-4 0  9999,2 56771  69.9990  31.1369 0003149 269.8474  90.2324 14.98322648 63231,6950.216,96.107,574.269,569.892,0.0
56771.0,STARLINK-6339,PAYLOAD,2024-07-12 14:05:28,14.98322299,0.0003149,69.9989,30.295,269.9165,90.1633,-2.8354e-05,-4.31e-06,0.0,0 STARLINK-6339,1 56771U 23078E   24194.58713021 -.00000431  00000-0 -28354-4 0  9999,2 56771  69.9989  30.2950 0003149 269.9165  90.1633 14.98322299 63024,6950.217,96.107,574.27,569.893,0.0
56771.0,STARLINK-6339,PAYLOAD,2024-07-12 22:06:08,14.98327459,0.0003075,69.9988,29.4539,268.4207,91.66,2.738e-05,2.34e-06,0.0,0 STARLINK-6339,1 56771U 23078E   24194.92092675  .00000234  00000-0  27380-4 0  9999,2 56771  69.9988  29.4539 0003075 268.4207  91.6600 14.98327459 63073,6950.201,96.107,574.203,569.929,0.0
56771.0,STARLINK-6339,PAYLOAD,2024-07-13 12:31:20,14.98310035,0.0002988,69.9986,27.9389,268.115,91.9667,0.0003463,4.039e-05,0.0,0 STARLINK-6339,1 56771U 23078E   24195.52176814  .00004039  00000-0  34630-3 0  9996,2 56771  69.9986  27.9389 0002988 268.1150  91.9667 14.98310035 63420,6950.255,96.108,574.196,570.043,0.0
56771.0,STARLINK-6339,PAYLOAD,2024-07-13 14:07:28,14.98311021,0.0002951,69.9986,27.7706,266.9333,93.1488,0.00035279,4.117e-05,0.0,0 STARLINK-6339,1 56771U 23078E   24195.58852810  .00004117  00000-0  35279-3 0  9996,2 56771  69.9986  27.7706 0002951 266.9333  93.1488 14.98311021 63173,6950.252,96.108,574.168,570.066,0.0
56771.0,STARLINK-6339,PAYLOAD,2024-07-13 22:08:09,14.98315616,0.0002918,69.9989,26.9288,265.9441,94.1384,0.0003847,4.498e-05,0.0,0 STARLINK-6339,1 56771U 23078E   24195.92232775  .00004498  00000-0  38470-3 0  9994,2 56771  69.9989  26.9288 0002918 265.9441  94.1384 14.98315616 63220,6950.237,96.108,574.13,570.074,0.0
56771.0,STARLINK-6339,PAYLOAD,2024-07-14 12:33:21,14.9833709,0.0003059,69.9991,25.4139,268.2336,91.8472,0.00010681,1.182e-05,0.0,0 STARLINK-6339,1 56771U 23078E   24196.52316219  .00001182  00000-0  10681-3 0  9998,2 56771  69.9991  25.4139 0003059 268.2336  91.8472 14.98337090 63578,6950.171,96.107,574.162,569.91,0.0
56771.0,STARLINK-6339,PAYLOAD,2024-07-14 14:09:29,14.98337751,0.0003067,69.9991,25.2454,268.1227,91.9581,0.00011404,1.268e-05,0.0,0 STARLINK-6339,1 56771U 23078E   24196.58992120  .00001268  00000-0  11404-3 0  9994,2 56771  69.9991  25.2454 0003067 268.1227  91.9581 14.98337751 63322,6950.169,96.107,574.166,569.902,0.0
56771.0,STARLINK-6339,PAYLOAD,2024-07-14 22:10:09,14.98341222,0.0003065,69.9992,24.4036,268.012,92.0688,0.00012128,1.355e-05,0.0,0 STARLINK-6339,1 56771U 23078E   24196.92371679  .00001355  00000-0  12128-3 0  9993,2 56771  69.9992  24.4036 0003065 268.0120  92.0688 14.98341222 63372,6950.158,96.106,574.153,569.893,0.0
56771.0,STARLINK-6339,PAYLOAD,2024-07-15 12:35:21,14.98340125,0.0003076,69.9992,22.888,267.6564,92.4242,1.7204e-05,1.12e-06,0.0,0 STARLINK-6339,1 56771U 23078E   24197.52455632  .00000112  00000-0  17204-4 0  9993,2 56771  69.9992  22.8880 0003076 267.6564  92.4242 14.98340125 63720,6950.162,96.106,574.164,569.889,0.0
56771.0,STARLINK-6339,PAYLOAD,2024-07-15 14:11:29,14.98340501,0.0003074,69.9992,22.7196,267.6156,92.4651,2.067e-05,1.54e-06,0.0,0 STARLINK-6339,1 56771U 23078E   24197.59131549  .00000154  00000-0  20670-4 0  9995,2 56771  69.9992  22.7196 0003074 267.6156  92.4651 14.98340501 63478,6950.16,96.106,574.162,569.889,0.0
56771.0,STARLINK-6339,PAYLOAD,2024-07-15 22:12:09,14.98341489,0.000307,69.9993,21.8787,268.8273,91.2534,3.2412e-05,2.94e-06,0.0,0 STARLINK-6339,1 56771U 23078E   24197.92511200  .00000294  00000-0  32412-4 0  9990,2 56771  69.9993  21.8787 0003070 268.8273  91.2534 14.98341489 63523,6950.157,96.106,574.156,569.889,0.0
56771.0,STARLINK-6339,PAYLOAD,2024-07-16 12:37:22,14.98339317,0.0003015,69.9994,20.3632,268.9568,91.1245,-4.467e-05,-6.26e-06,0.0,0 STARLINK-6339,1 56771U 23078E   24198.52595149 -.00000626  00000-0 -44670-4 0  9991,2 56771  69.9994  20.3632 0003015 268.9568  91.1245 14.98339317 63877,6950.164,96.106,574.125,569.934,0.0
56771.0,STARLINK-6339,PAYLOAD,2024-07-16 14:13:30,14.98337983,0.0003028,69.9993,20.1948,268.9822,91.099,-5.7214e-05,-7.76e-06,0.0,0 STARLINK-6339,1 56771U 23078E   24198.59271219 -.00000776  00000-0 -57214-4 0  9991,2 56771  69.9993  20.1948 0003028 268.9822  91.0990 14.98337983 63627,6950.168,96.106,574.138,569.929,0.0
56771.0,STARLINK-6339,PAYLOAD,2024-07-16 22:14:10,14.98339628,0.0003052,69.9994,19.3532,269.3495,90.7314,-6.0509e-05,-8.15e-06,0.0,0 STARLINK-6339,1 56771U 23078E   24198.92650922 -.00000815  00000-0 -60509-4 0  9995,2 56771  69.9994  19.3532 0003052 269.3495  90.7314 14.98339628 63674,6950.163,96.106,574.149,569.907,0.0
56771.0,STARLINK-6339,PAYLOAD,2024-07-17 12:39:23,14.98330607,0.0002941,69.9996,17.8381,269.8759,90.2063,-7.7485e-05,-1.017e-05,0.0,0 STARLINK-6339,1 56771U 23078E   24199.52735406 -.00001017  00000-0 -77485-4 0  9999,2 56771  69.9996  17.8381 0002941 269.8759  90.2063 14.98330607 64029,6950.191,96.107,574.1,570.012,0.0
56771.0,STARLINK-6339,PAYLOAD,2024-07-17 14:15:31,14.98330129,0.0002944,69.9995,17.6698,269.8942,90.188,-8.0932e-05,-1.059e-05,0.0,0 STARLINK-6339,1 56771U 23078E   24199.59411437 -.00001059  00000-0 -80932-4 0  9998,2 56771  69.9995  17.6698 0002944 269.8942  90.1880 14.98330129 63770,6950.192,96.107,574.104,570.011,0.0
56771.0,STARLINK-6339,PAYLOAD,2024-07-17 22:16:11,14.98330126,0.0002935,69.9995,16.828,270.1113,89.971,-6.8492e-05,-9.1e-06,0.0,0 STARLINK-6339,1 56771U 23078E   24199.92791391 -.00000910  00000-0 -68492-4 0  9997,2 56771  69.9995  16.8280 0002935 270.1113  89.9710 14.98330126 63824,6950.193,96.107,574.097,570.018,0.0
56771.0,STARLINK-6339,PAYLOAD,2024-07-18 12:41:23,14.98333656,0.0002989,69.9993,15.3133,270.7178,89.3638,2.8384e-05,2.46e-06,0.0,0 STARLINK-6339,1 56771U 23078E   24200.52874832  .00000246  00000-0  28384-4 0  9994,2 56771  69.9993  15.3133 0002989 270.7178  89.3638 14.98333656 64172,6950.182,96.107,574.124,569.969,0.0
56771.0,STARLINK-6339,PAYLOAD,2024-07-18 14:17:31,14.98333371,0.0002998,69.9993,15.145,270.6328,89.4487,2.5564e-05,2.12e-06,0.0,0 STARLINK-6339,1 56771U 23078E   24200.59550842  .00000212  00000-0  25564-4 0  9993,2 56771  69.9993  15.1450 0002998 270.6328  89.4487 14.98333371 63927,6950.182,96.107,574.131,569.964,0.0
56771.0,STARLINK-6339,PAYLOAD,2024-07-18 20:42:04,14.98334425,0.0002938,69.9995,14.472,267.1486,92.9337,4.6171e-05,4.58e-06,0.0,0 STARLINK-6339,1 56771U 23078E   24200.86254648  .00000458  00000-0  46171-4 0  9997,2 56771  69.9995  14.4720 0002938 267.1486  92.9337 14.98334425 63969,6950.179,96.107,574.086,570.002,0.0
56771.0,STARLINK-6339,PAYLOAD,2024-07-19 12:43:24,14.98328581,0.0002961,69.9993,12.7885,267.9636,92.1184,5.5194e-05,5.66e-06,0.0,0 STARLINK-6339,1 56771U 23078E   24201.53014907  .00000566  00000-0  55194-4 0  9999,2 56771  69.9993  12.7885 0002961 267.9636  92.1184 14.98328581 64320,6950.197,96.107,574.12,570.004,0.0
